<?xml version="1.0" encoding="UTF-8"?>
<ndm xmlns:xsi="http://www.w3.org/2001/XMLSchema-instance" xsi:noNamespaceSchemaLocation="https://sanaregistry.org/r/ndmxml_unqualified/ndmxml-2.0.0-master-2.0.xsd">
<omm id="CCSDS_OMM_VERS" version="2.0">
<header><CREATION_DATE/><ORIGINATOR/></header><body><segment><metadata><OBJECT_NAME>KUIPER-00035</OBJECT_NAME><OBJECT_ID>2025-088AA</OBJECT_ID><CENTER_NAME>EARTH</CENTER_NAME><REF_FRAME>TEME</REF_FRAME><TIME_SYSTEM>UTC</TIME_SYSTEM><MEAN_ELEMENT_THEORY>SGP4</MEAN_ELEMENT_THEORY></metadata><data><meanElements><EPOCH>2025-10-21T14:17:59.938368</EPOCH><MEAN_MOTION>14.79939751</MEAN_MOTION><ECCENTRICITY>.000452</ECCENTRICITY><INCLINATION>51.9034</INCLINATION><RA_OF_ASC_NODE>9.1811</RA_OF_ASC_NODE><ARG_OF_PERICENTER>330.5918</ARG_OF_PERICENTER><MEAN_ANOMALY>29.4789</MEAN_ANOMALY></meanElements><tleParameters><EPHEMERIS_TYPE>0</EPHEMERIS_TYPE><CLASSIFICATION_TYPE>U</CLASSIFICATION_TYPE><NORAD_CAT_ID>63748</NORAD_CAT_ID><ELEMENT_SET_NO>999</ELEMENT_SET_NO><REV_AT_EPOCH>2691</REV_AT_EPOCH><BSTAR>-.10794892E-3</BSTAR><MEAN_MOTION_DOT>-.1045E-4</MEAN_MOTION_DOT><MEAN_MOTION_DDOT>0</MEAN_MOTION_DDOT></tleParameters></data></segment></body></omm>
<omm id="CCSDS_OMM_VERS" version="2.0">
<header><CREATION_DATE/><ORIGINATOR/></header><body><segment><metadata><OBJECT_NAME>KUIPER-00037</OBJECT_NAME><OBJECT_ID>2025-088AB</OBJECT_ID><CENTER_NAME>EARTH</CENTER_NAME><REF_FRAME>TEME</REF_FRAME><TIME_SYSTEM>UTC</TIME_SYSTEM><MEAN_ELEMENT_THEORY>SGP4</MEAN_ELEMENT_THEORY></metadata><data><meanElements><EPOCH>2025-10-21T11:06:01.514592</EPOCH><MEAN_MOTION>14.79940331</MEAN_MOTION><ECCENTRICITY>.00073748</ECCENTRICITY><INCLINATION>51.9005</INCLINATION><RA_OF_ASC_NODE>8.7241</RA_OF_ASC_NODE><ARG_OF_PERICENTER>281.4580</ARG_OF_PERICENTER><MEAN_ANOMALY>78.5554</MEAN_ANOMALY></meanElements><tleParameters><EPHEMERIS_TYPE>0</EPHEMERIS_TYPE><CLASSIFICATION_TYPE>U</CLASSIFICATION_TYPE><NORAD_CAT_ID>63749</NORAD_CAT_ID><ELEMENT_SET_NO>999</ELEMENT_SET_NO><REV_AT_EPOCH>2769</REV_AT_EPOCH><BSTAR>.96925628E-3</BSTAR><MEAN_MOTION_DOT>.7178E-4</MEAN_MOTION_DOT><MEAN_MOTION_DDOT>0</MEAN_MOTION_DDOT></tleParameters></data></segment></body></omm>
<omm id="CCSDS_OMM_VERS" version="2.0">
<header><CREATION_DATE/><ORIGINATOR/></header><body><segment><metadata><OBJECT_NAME>KUIPER-00038</OBJECT_NAME><OBJECT_ID>2025-088AC</OBJECT_ID><CENTER_NAME>EARTH</CENTER_NAME><REF_FRAME>TEME</REF_FRAME><TIME_SYSTEM>UTC</TIME_SYSTEM><MEAN_ELEMENT_THEORY>SGP4</MEAN_ELEMENT_THEORY></metadata><data><meanElements><EPOCH>2025-10-21T12:59:35.003904</EPOCH><MEAN_MOTION>14.77098596</MEAN_MOTION><ECCENTRICITY>.00060127</ECCENTRICITY><INCLINATION>51.9027</INCLINATION><RA_OF_ASC_NODE>353.3338</RA_OF_ASC_NODE><ARG_OF_PERICENTER>345.4334</ARG_OF_PERICENTER><MEAN_ANOMALY>14.6453</MEAN_ANOMALY></meanElements><tleParameters><EPHEMERIS_TYPE>0</EPHEMERIS_TYPE><CLASSIFICATION_TYPE>U</CLASSIFICATION_TYPE><NORAD_CAT_ID>63750</NORAD_CAT_ID><ELEMENT_SET_NO>999</ELEMENT_SET_NO><REV_AT_EPOCH>2691</REV_AT_EPOCH><BSTAR>.50361906E-3</BSTAR><MEAN_MOTION_DOT>.3376E-4</MEAN_MOTION_DOT><MEAN_MOTION_DDOT>0</MEAN_MOTION_DDOT></tleParameters></data></segment></body></omm>
<omm id="CCSDS_OMM_VERS" version="2.0">
<header><CREATION_DATE/><ORIGINATOR/></header><body><segment><metadata><OBJECT_NAME>KUIPER-00039</OBJECT_NAME><OBJECT_ID>2025-134A</OBJECT_ID><CENTER_NAME>EARTH</CENTER_NAME><REF_FRAME>TEME</REF_FRAME><TIME_SYSTEM>UTC</TIME_SYSTEM><MEAN_ELEMENT_THEORY>SGP4</MEAN_ELEMENT_THEORY></metadata><data><meanElements><EPOCH>2025-10-21T14:04:06.642336</EPOCH><MEAN_MOTION>14.79944846</MEAN_MOTION><ECCENTRICITY>.00119509</ECCENTRICITY><INCLINATION>51.8986</INCLINATION><RA_OF_ASC_NODE>128.1894</RA_OF_ASC_NODE><ARG_OF_PERICENTER>188.5463</ARG_OF_PERICENTER><MEAN_ANOMALY>171.5298</MEAN_ANOMALY></meanElements><tleParameters><EPHEMERIS_TYPE>0</EPHEMERIS_TYPE><CLASSIFICATION_TYPE>U</CLASSIFICATION_TYPE><NORAD_CAT_ID>64500</NORAD_CAT_ID><ELEMENT_SET_NO>999</ELEMENT_SET_NO><REV_AT_EPOCH>1947</REV_AT_EPOCH><BSTAR>-.34369842E-3</BSTAR><MEAN_MOTION_DOT>-.2847E-4</MEAN_MOTION_DOT><MEAN_MOTION_DDOT>0</MEAN_MOTION_DDOT></tleParameters></data></segment></body></omm>
<omm id="CCSDS_OMM_VERS" version="2.0">
<header><CREATION_DATE/><ORIGINATOR/></header><body><segment><metadata><OBJECT_NAME>KUIPER-00040</OBJECT_NAME><OBJECT_ID>2025-134B</OBJECT_ID><CENTER_NAME>EARTH</CENTER_NAME><REF_FRAME>TEME</REF_FRAME><TIME_SYSTEM>UTC</TIME_SYSTEM><MEAN_ELEMENT_THEORY>SGP4</MEAN_ELEMENT_THEORY></metadata><data><meanElements><EPOCH>2025-10-21T13:46:21.125568</EPOCH><MEAN_MOTION>14.79935676</MEAN_MOTION><ECCENTRICITY>.00184003</ECCENTRICITY><INCLINATION>51.8978</INCLINATION><RA_OF_ASC_NODE>139.4098</RA_OF_ASC_NODE><ARG_OF_PERICENTER>168.1432</ARG_OF_PERICENTER><MEAN_ANOMALY>191.9967</MEAN_ANOMALY></meanElements><tleParameters><EPHEMERIS_TYPE>0</EPHEMERIS_TYPE><CLASSIFICATION_TYPE>U</CLASSIFICATION_TYPE><NORAD_CAT_ID>64501</NORAD_CAT_ID><ELEMENT_SET_NO>999</ELEMENT_SET_NO><REV_AT_EPOCH>1931</REV_AT_EPOCH><BSTAR>.70633412E-3</BSTAR><MEAN_MOTION_DOT>.5178E-4</MEAN_MOTION_DOT><MEAN_MOTION_DDOT>0</MEAN_MOTION_DDOT></tleParameters></data></segment></body></omm>
<omm id="CCSDS_OMM_VERS" version="2.0">
<header><CREATION_DATE/><ORIGINATOR/></header><body><segment><metadata><OBJECT_NAME>KUIPER-00041</OBJECT_NAME><OBJECT_ID>2025-134C</OBJECT_ID><CENTER_NAME>EARTH</CENTER_NAME><REF_FRAME>TEME</REF_FRAME><TIME_SYSTEM>UTC</TIME_SYSTEM><MEAN_ELEMENT_THEORY>SGP4</MEAN_ELEMENT_THEORY></metadata><data><meanElements><EPOCH>2025-10-21T13:44:48.764832</EPOCH><MEAN_MOTION>14.79947125</MEAN_MOTION><ECCENTRICITY>.00148956</ECCENTRICITY><INCLINATION>51.8970</INCLINATION><RA_OF_ASC_NODE>140.7720</RA_OF_ASC_NODE><ARG_OF_PERICENTER>160.7957</ARG_OF_PERICENTER><MEAN_ANOMALY>199.3570</MEAN_ANOMALY></meanElements><tleParameters><EPHEMERIS_TYPE>0</EPHEMERIS_TYPE><CLASSIFICATION_TYPE>U</CLASSIFICATION_TYPE><NORAD_CAT_ID>64502</NORAD_CAT_ID><ELEMENT_SET_NO>999</ELEMENT_SET_NO><REV_AT_EPOCH>1929</REV_AT_EPOCH><BSTAR>.71262504E-3</BSTAR><MEAN_MOTION_DOT>.5224E-4</MEAN_MOTION_DOT><MEAN_MOTION_DDOT>0</MEAN_MOTION_DDOT></tleParameters></data></segment></body></omm>
<omm id="CCSDS_OMM_VERS" version="2.0">
<header><CREATION_DATE/><ORIGINATOR/></header><body><segment><metadata><OBJECT_NAME>KUIPER-00042</OBJECT_NAME><OBJECT_ID>2025-134D</OBJECT_ID><CENTER_NAME>EARTH</CENTER_NAME><REF_FRAME>TEME</REF_FRAME><TIME_SYSTEM>UTC</TIME_SYSTEM><MEAN_ELEMENT_THEORY>SGP4</MEAN_ELEMENT_THEORY></metadata><data><meanElements><EPOCH>2025-10-21T13:50:14.397792</EPOCH><MEAN_MOTION>14.79938813</MEAN_MOTION><ECCENTRICITY>.00134054</ECCENTRICITY><INCLINATION>51.8973</INCLINATION><RA_OF_ASC_NODE>136.7538</RA_OF_ASC_NODE><ARG_OF_PERICENTER>171.8316</ARG_OF_PERICENTER><MEAN_ANOMALY>188.2867</MEAN_ANOMALY></meanElements><tleParameters><EPHEMERIS_TYPE>0</EPHEMERIS_TYPE><CLASSIFICATION_TYPE>U</CLASSIFICATION_TYPE><NORAD_CAT_ID>64503</NORAD_CAT_ID><ELEMENT_SET_NO>999</ELEMENT_SET_NO><REV_AT_EPOCH>1935</REV_AT_EPOCH><BSTAR>.83109964E-3</BSTAR><MEAN_MOTION_DOT>.6127E-4</MEAN_MOTION_DOT><MEAN_MOTION_DDOT>0</MEAN_MOTION_DDOT></tleParameters></data></segment></body></omm>
<omm id="CCSDS_OMM_VERS" version="2.0">
<header><CREATION_DATE/><ORIGINATOR/></header><body><segment><metadata><OBJECT_NAME>KUIPER-00043</OBJECT_NAME><OBJECT_ID>2025-134E</OBJECT_ID><CENTER_NAME>EARTH</CENTER_NAME><REF_FRAME>TEME</REF_FRAME><TIME_SYSTEM>UTC</TIME_SYSTEM><MEAN_ELEMENT_THEORY>SGP4</MEAN_ELEMENT_THEORY></metadata><data><meanElements><EPOCH>2025-10-21T14:01:59.350080</EPOCH><MEAN_MOTION>14.79937679</MEAN_MOTION><ECCENTRICITY>.00043311</ECCENTRICITY><INCLINATION>51.8998</INCLINATION><RA_OF_ASC_NODE>129.1533</RA_OF_ASC_NODE><ARG_OF_PERICENTER>154.9233</ARG_OF_PERICENTER><MEAN_ANOMALY>205.1941</MEAN_ANOMALY></meanElements><tleParameters><EPHEMERIS_TYPE>0</EPHEMERIS_TYPE><CLASSIFICATION_TYPE>U</CLASSIFICATION_TYPE><NORAD_CAT_ID>64504</NORAD_CAT_ID><ELEMENT_SET_NO>999</ELEMENT_SET_NO><REV_AT_EPOCH>1946</REV_AT_EPOCH><BSTAR>.61502478E-3</BSTAR><MEAN_MOTION_DOT>.4471E-4</MEAN_MOTION_DOT><MEAN_MOTION_DDOT>0</MEAN_MOTION_DDOT></tleParameters></data></segment></body></omm>

</ndm>
