KUIPER-00035            
1 63748U 25088AA  25294.59583262 -.00001045  00000+0 -10795-3 0  9999
2 63748  51.9034   9.1811 0004520 330.5918  29.4789 14.79939751 26914
KUIPER-00037            
1 63749U 25088AB  25294.46251753  .00007178  00000+0  96926-3 0  9994
2 63749  51.9005   8.7241 0007374 281.4580  78.5554 14.79940331 27691
KUIPER-00038            
1 63750U 25088AC  25294.54137736  .00003376  00000+0  50362-3 0  9999
2 63750  51.9027 353.3338 0006012 345.4334  14.6453 14.77098596 26917
KUIPER-00039            
1 64500U 25134A   25294.58618799 -.00002847  00000+0 -34370-3 0  9997
2 64500  51.8986 128.1894 0011950 188.5463 171.5298 14.79944846 19478
KUIPER-00040            
1 64501U 25134B   25294.57385562  .00005178  00000+0  70633-3 0  9996
2 64501  51.8978 139.4098 0018400 168.1432 191.9967 14.79935676 19311
KUIPER-00041            
1 64502U 25134C   25294.57278663  .00005224  00000+0  71263-3 0  9992
2 64502  51.8970 140.7720 0014895 160.7957 199.3570 14.79947125 19296
KUIPER-00042            
1 64503U 25134D   25294.57655553  .00006127  00000+0  83110-3 0  9997
2 64503  51.8973 136.7538 0013405 171.8316 188.2867 14.79938813 19357
KUIPER-00043            
1 64504U 25134E   25294.58471470  .00004471  00000+0  61502-3 0  9994
2 64504  51.8998 129.1533 0004331 154.9233 205.1941 14.79937679 19467
